[
  {
    "COMMENT": "GENERATED VIA SPACETRACK.ORG API",
    "ORIGINATOR": "18 SPCS",
    "NORAD_CAT_ID": "27421",
    "OBJECT_NAME": "SPOT 5",
    "OBJECT_TYPE": "PAYLOAD",
    "CLASSIFICATION_TYPE": "U",
    "INTLDES": "02021A",
    "EPOCH": "2023-07-15 04:53:37",
    "EPOCH_MICROSECONDS": "318560",
    "MEAN_MOTION": "14.52687549",
    "ECCENTRICITY": "0.013349",
    "INCLINATION": "98.1382",
    "RA_OF_ASC_NODE": "258.3852",
    "ARG_OF_PERICENTER": "347.8987",
    "MEAN_ANOMALY": "11.9012",
    "EPHEMERIS_TYPE": "0",
    "ELEMENT_SET_NO": "999",
    "REV_AT_EPOCH": "10770",
    "BSTAR": "0.0001139",
    "MEAN_MOTION_DOT": "0.00000474",
    "MEAN_MOTION_DDOT": "0",
    "FILE": "3958463",
    "TLE_LINE0": "0 SPOT 5",
    "TLE_LINE1": "1 27421U 02021A   23196.20390415  .00000474  00000-0  11390-3 0  9998",
    "TLE_LINE2": "2 27421  98.1382 258.3852 0133490 347.8987  11.9012 14.52687549107708",
    "OBJECT_ID": "2002-021A",
    "OBJECT_NUMBER": "27421",
    "SEMIMAJOR_AXIS": "7095.021",
    "PERIOD": "99.127",
    "APOGEE": "811.598",
    "PERIGEE": "622.175",
    "DECAYED": "0"
  },
  {
    "COMMENT": "GENERATED VIA SPACETRACK.ORG API",
    "ORIGINATOR": "18 SPCS",
    "NORAD_CAT_ID": "27421",
    "OBJECT_NAME": "SPOT 5",
    "OBJECT_TYPE": "PAYLOAD",
    "CLASSIFICATION_TYPE": "U",
    "INTLDES": "02021A",
    "EPOCH": "2023-07-15 16:27:54",
    "EPOCH_MICROSECONDS": "466848",
    "MEAN_MOTION": "14.5268788",
    "ECCENTRICITY": "0.0133457",
    "INCLINATION": "98.1382",
    "RA_OF_ASC_NODE": "258.8532",
    "ARG_OF_PERICENTER": "346.4073",
    "MEAN_ANOMALY": "13.3542",
    "EPHEMERIS_TYPE": "0",
    "ELEMENT_SET_NO": "999",
    "REV_AT_EPOCH": "10777",
    "BSTAR": "0.000109",
    "MEAN_MOTION_DOT": "0.00000451",
    "MEAN_MOTION_DDOT": "0",
    "FILE": "3958743",
    "TLE_LINE0": "0 SPOT 5",
    "TLE_LINE1": "1 27421U 02021A   23196.68604707  .00000451  00000-0  10900-3 0  9993",
    "TLE_LINE2": "2 27421  98.1382 258.8532 0133457 346.4073  13.3542 14.52687880107771",
    "OBJECT_ID": "2002-021A",
    "OBJECT_NUMBER": "27421",
    "SEMIMAJOR_AXIS": "7095.020",
    "PERIOD": "99.127",
    "APOGEE": "811.573",
    "PERIGEE": "622.197",
    "DECAYED": "0"
  },
  {
    "COMMENT": "GENERATED VIA SPACETRACK.ORG API",
    "ORIGINATOR": "18 SPCS",
    "NORAD_CAT_ID": "27421",
    "OBJECT_NAME": "SPOT 5",
    "OBJECT_TYPE": "PAYLOAD",
    "CLASSIFICATION_TYPE": "U",
    "INTLDES": "02021A",
    "EPOCH": "2023-07-16 02:23:00",
    "EPOCH_MICROSECONDS": "573216",
    "MEAN_MOTION": "14.52688267",
    "ECCENTRICITY": "0.0133428",
    "INCLINATION": "98.1382",
    "RA_OF_ASC_NODE": "259.2543",
    "ARG_OF_PERICENTER": "345.1247",
    "MEAN_ANOMALY": "14.604",
    "EPHEMERIS_TYPE": "0",
    "ELEMENT_SET_NO": "999",
    "REV_AT_EPOCH": "10783",
    "BSTAR": "0.00010747",
    "MEAN_MOTION_DOT": "0.00000444",
    "MEAN_MOTION_DDOT": "0",
    "FILE": "3959067",
    "TLE_LINE0": "0 SPOT 5",
    "TLE_LINE1": "1 27421U 02021A   23197.09931219  .00000444  00000-0  10747-3 0  9991",
    "TLE_LINE2": "2 27421  98.1382 259.2543 0133428 345.1247  14.6040 14.52688267107839",
    "OBJECT_ID": "2002-021A",
    "OBJECT_NUMBER": "27421",
    "SEMIMAJOR_AXIS": "7095.019",
    "PERIOD": "99.127",
    "APOGEE": "811.551",
    "PERIGEE": "622.216",
    "DECAYED": "0"
  },
  {
    "COMMENT": "GENERATED VIA SPACETRACK.ORG API",
    "ORIGINATOR": "18 SPCS",
    "NORAD_CAT_ID": "27421",
    "OBJECT_NAME": "SPOT 5",
    "OBJECT_TYPE": "PAYLOAD",
    "CLASSIFICATION_TYPE": "U",
    "INTLDES": "02021A",
    "EPOCH": "2023-07-16 10:38:55",
    "EPOCH_MICROSECONDS": "670496",
    "MEAN_MOTION": "14.52688539",
    "ECCENTRICITY": "0.0133412",
    "INCLINATION": "98.1382",
    "RA_OF_ASC_NODE": "259.5886",
    "ARG_OF_PERICENTER": "344.0629",
    "MEAN_ANOMALY": "15.6388",
    "EPHEMERIS_TYPE": "0",
    "ELEMENT_SET_NO": "999",
    "REV_AT_EPOCH": "10788",
    "BSTAR": "0.00010553",
    "MEAN_MOTION_DOT": "0.00000435",
    "MEAN_MOTION_DDOT": "0",
    "FILE": "3959320",
    "TLE_LINE0": "0 SPOT 5",
    "TLE_LINE1": "1 27421U 02021A   23197.44369989  .00000435  00000-0  10553-3 0  9994",
    "TLE_LINE2": "2 27421  98.1382 259.5886 0133412 344.0629  15.6388 14.52688539107880",
    "OBJECT_ID": "2002-021A",
    "OBJECT_NUMBER": "27421",
    "SEMIMAJOR_AXIS": "7095.018",
    "PERIOD": "99.127",
    "APOGEE": "811.539",
    "PERIGEE": "622.227",
    "DECAYED": "0"
  },
  {
    "COMMENT": "GENERATED VIA SPACETRACK.ORG API",
    "ORIGINATOR": "18 SPCS",
    "NORAD_CAT_ID": "27421",
    "OBJECT_NAME": "SPOT 5",
    "OBJECT_TYPE": "PAYLOAD",
    "CLASSIFICATION_TYPE": "U",
    "INTLDES": "02021A",
    "EPOCH": "2023-07-16 18:54:50",
    "EPOCH_MICROSECONDS": "755680",
    "MEAN_MOTION": "14.52688861",
    "ECCENTRICITY": "0.0133384",
    "INCLINATION": "98.1381",
    "RA_OF_ASC_NODE": "259.9229",
    "ARG_OF_PERICENTER": "342.9932",
    "MEAN_ANOMALY": "16.6815",
    "EPHEMERIS_TYPE": "0",
    "ELEMENT_SET_NO": "999",
    "REV_AT_EPOCH": "10793",
    "BSTAR": "0.00010461",
    "MEAN_MOTION_DOT": "0.00000431",
    "MEAN_MOTION_DDOT": "0",
    "FILE": "3959644",
    "TLE_LINE0": "0 SPOT 5",
    "TLE_LINE1": "1 27421U 02021A   23197.78808745  .00000431  00000-0  10461-3 0  9993",
    "TLE_LINE2": "2 27421  98.1381 259.9229 0133384 342.9932  16.6815 14.52688861107936",
    "OBJECT_ID": "2002-021A",
    "OBJECT_NUMBER": "27421",
    "SEMIMAJOR_AXIS": "7095.017",
    "PERIOD": "99.127",
    "APOGEE": "811.518",
    "PERIGEE": "622.246",
    "DECAYED": "0"
  },
  {
    "COMMENT": "GENERATED VIA SPACETRACK.ORG API",
    "ORIGINATOR": "18 SPCS",
    "NORAD_CAT_ID": "27421",
    "OBJECT_NAME": "SPOT 5",
    "OBJECT_TYPE": "PAYLOAD",
    "CLASSIFICATION_TYPE": "U",
    "INTLDES": "02021A",
    "EPOCH": "2023-07-16 22:13:12",
    "EPOCH_MICROSECONDS": "788544",
    "MEAN_MOTION": "14.52688954",
    "ECCENTRICITY": "0.0133374",
    "INCLINATION": "98.1381",
    "RA_OF_ASC_NODE": "260.0567",
    "ARG_OF_PERICENTER": "342.5636",
    "MEAN_ANOMALY": "17.1003",
    "EPHEMERIS_TYPE": "0",
    "ELEMENT_SET_NO": "999",
    "REV_AT_EPOCH": "10795",
    "BSTAR": "0.00010337",
    "MEAN_MOTION_DOT": "0.00000425",
    "MEAN_MOTION_DDOT": "0",
    "FILE": "3959887",
    "TLE_LINE0": "0 SPOT 5",
    "TLE_LINE1": "1 27421U 02021A   23197.92584246  .00000425  00000-0  10337-3 0  9991",
    "TLE_LINE2": "2 27421  98.1381 260.0567 0133374 342.5636  17.1003 14.52688954107950",
    "OBJECT_ID": "2002-021A",
    "OBJECT_NUMBER": "27421",
    "SEMIMAJOR_AXIS": "7095.017",
    "PERIOD": "99.127",
    "APOGEE": "811.511",
    "PERIGEE": "622.253",
    "DECAYED": "0"
  },
  {
    "COMMENT": "GENERATED VIA SPACETRACK.ORG API",
    "ORIGINATOR": "18 SPCS",
    "NORAD_CAT_ID": "27421",
    "OBJECT_NAME": "SPOT 5",
    "OBJECT_TYPE": "PAYLOAD",
    "CLASSIFICATION_TYPE": "U",
    "INTLDES": "02021A",
    "EPOCH": "2023-07-17 09:47:29",
    "EPOCH_MICROSECONDS": "870304",
    "MEAN_MOTION": "14.52689876",
    "ECCENTRICITY": "0.013335",
    "INCLINATION": "98.1381",
    "RA_OF_ASC_NODE": "260.5246",
    "ARG_OF_PERICENTER": "341.0676",
    "MEAN_ANOMALY": "18.5588",
    "EPHEMERIS_TYPE": "0",
    "ELEMENT_SET_NO": "999",
    "REV_AT_EPOCH": "10802",
    "BSTAR": "0.0001172",
    "MEAN_MOTION_DOT": "0.00000489",
    "MEAN_MOTION_DDOT": "0",
    "FILE": "3960196",
    "TLE_LINE0": "0 SPOT 5",
    "TLE_LINE1": "1 27421U 02021A   23198.40798461  .00000489  00000-0  11720-3 0  9998",
    "TLE_LINE2": "2 27421  98.1381 260.5246 0133350 341.0676  18.5588 14.52689876108027",
    "OBJECT_ID": "2002-021A",
    "OBJECT_NUMBER": "27421",
    "SEMIMAJOR_AXIS": "7095.014",
    "PERIOD": "99.126",
    "APOGEE": "811.491",
    "PERIGEE": "622.267",
    "DECAYED": "0"
  },
  {
    "COMMENT": "GENERATED VIA SPACETRACK.ORG API",
    "ORIGINATOR": "18 SPCS",
    "NORAD_CAT_ID": "27421",
    "OBJECT_NAME": "SPOT 5",
    "OBJECT_TYPE": "PAYLOAD",
    "CLASSIFICATION_TYPE": "U",
    "INTLDES": "02021A",
    "EPOCH": "2023-07-17 16:24:13",
    "EPOCH_MICROSECONDS": "927392",
    "MEAN_MOTION": "14.5269007",
    "ECCENTRICITY": "0.0133329",
    "INCLINATION": "98.1381",
    "RA_OF_ASC_NODE": "260.7921",
    "ARG_OF_PERICENTER": "340.2151",
    "MEAN_ANOMALY": "19.3901",
    "EPHEMERIS_TYPE": "0",
    "ELEMENT_SET_NO": "999",
    "REV_AT_EPOCH": "10806",
    "BSTAR": "0.0001129",
    "MEAN_MOTION_DOT": "0.00000469",
    "MEAN_MOTION_DDOT": "0",
    "FILE": "3960499",
    "TLE_LINE0": "0 SPOT 5",
    "TLE_LINE1": "1 27421U 02021A   23198.68349453  .00000469  00000-0  11290-3 0  9991",
    "TLE_LINE2": "2 27421  98.1381 260.7921 0133329 340.2151  19.3901 14.52690070108064",
    "OBJECT_ID": "2002-021A",
    "OBJECT_NUMBER": "27421",
    "SEMIMAJOR_AXIS": "7095.013",
    "PERIOD": "99.126",
    "APOGEE": "811.475",
    "PERIGEE": "622.281",
    "DECAYED": "0"
  },
  {
    "COMMENT": "GENERATED VIA SPACETRACK.ORG API",
    "ORIGINATOR": "18 SPCS",
    "NORAD_CAT_ID": "27421",
    "OBJECT_NAME": "SPOT 5",
    "OBJECT_TYPE": "PAYLOAD",
    "CLASSIFICATION_TYPE": "U",
    "INTLDES": "02021A",
    "EPOCH": "2023-07-18 00:40:08",
    "EPOCH_MICROSECONDS": "983200",
    "MEAN_MOTION": "14.52690454",
    "ECCENTRICITY": "0.0133303",
    "INCLINATION": "98.1381",
    "RA_OF_ASC_NODE": "261.1263",
    "ARG_OF_PERICENTER": "339.1446",
    "MEAN_ANOMALY": "20.4341",
    "EPHEMERIS_TYPE": "0",
    "ELEMENT_SET_NO": "999",
    "REV_AT_EPOCH": "10811",
    "BSTAR": "0.00011348",
    "MEAN_MOTION_DOT": "0.00000471",
    "MEAN_MOTION_DDOT": "0",
    "FILE": "3960778",
    "TLE_LINE0": "0 SPOT 5",
    "TLE_LINE1": "1 27421U 02021A   23199.02788175  .00000471  00000-0  11348-3 0  9995",
    "TLE_LINE2": "2 27421  98.1381 261.1263 0133303 339.1446  20.4341 14.52690454108117",
    "OBJECT_ID": "2002-021A",
    "OBJECT_NUMBER": "27421",
    "SEMIMAJOR_AXIS": "7095.012",
    "PERIOD": "99.126",
    "APOGEE": "811.455",
    "PERIGEE": "622.298",
    "DECAYED": "0"
  }
]